APRIZESAT 2             
1 28366U 04025A   26182.27035516  .00000245  00000+0  89258-4 0  9990
2 28366  98.1026 347.4543 0104984 206.9375 152.6341 14.38042052153663
SAUDICOMSAT 1           
1 28369U 04025D   26182.24663604  .00000431  00000+0  10973-3 0  9999
2 28369  98.5770 192.7574 0031725 342.7029  17.3084 14.55485023166177
SAUDICOMSAT 2           
1 28370U 04025E   26182.47846568  .00000234  00000+0  71941-4 0  9992
2 28370  98.6639 195.1289 0054716 215.4585 144.2966 14.49988646162179
APRIZESAT 1             
1 28372U 04025G   26182.49248135  .00000294  00000+0  84254-4 0  9999
2 28372  98.6303 193.6073 0045692 111.2325 249.3759 14.51785268163986
NANOSAT-1               
1 28493U 04049B   26182.29760176  .00001173  00000+0  16170-3 0  9999
2 28493  98.2294 319.3049 0002877 236.9182 123.1753 14.80187886157530
SAUDICOMSAT 7           
1 31119U 07012C   26182.44492850  .00000633  00000+0  12200-3 0  9999
2 31119  98.3786 156.8689 0056287 150.6134 209.8254 14.66124540 24525
SAUDICOMSAT 6           
1 31121U 07012E   26182.45703431  .00000552  00000+0  11532-3 0  9990
2 31121  98.4106 150.2396 0070418 282.6860  76.6475 14.62574115 22270
SAUDICOMSAT 5           
1 31124U 07012H   26182.46658444  .00000836  00000+0  15184-3 0  9999
2 31124  98.3497 157.6349 0048730  80.9675 279.7039 14.68176418 25690
SAUDICOMSAT 3           
1 31125U 07012J   26182.47036709  .00000944  00000+0  16178-3 0  9999
2 31125  98.3151 158.1861 0039310   8.9322 351.2575 14.70730562 26923
SAUDICOMSAT 4           
1 31127U 07012L   26182.43407045  .00000480  00000+0  97865-4 0  9990
2 31127  98.3992 155.2957 0062616 212.9350 146.7945 14.64525299 23371
APRIZESAT 4             
1 35684U 09041D   26182.14789819  .00000751  00000+0  96134-4 0  9995
2 35684  98.1410 257.7465 0041887 276.5074  83.1371 14.83897710913437
APRIZESAT 3             
1 35686U 09041F   26182.14247965  .00001011  00000+0  91993-4 0  9996
2 35686  98.2078 336.0363 0062086  22.0128 338.3737 14.96279358918461
S-NET D                 
1 43186U 18014G   26182.31619456  .00005821  00000+0  29950-3 0  9993
2 43186  97.5353  87.0190 0007367 342.5035  17.5943 15.16805336460902
S-NET B                 
1 43187U 18014H   26182.32792418  .00006051  00000+0  31140-3 0  9995
2 43187  97.5358  87.0177 0007793 336.6590  23.4288 15.16776039460901
S-NET A                 
1 43188U 18014J   26182.31499436  .00005823  00000+0  29947-3 0  9997
2 43188  97.5368  87.2164 0007739 337.5464  22.5429 15.16813698460901
S-NET C                 
1 43189U 18014K   26182.33187261  .00006096  00000+0  31371-3 0  9997
2 43189  97.5386  87.3099 0008866 327.5717  32.4970 15.16767745459452
SALSAT                  
1 46495U 20068K   26182.46936082  .00008603  00000+0  29885-3 0  9992
2 46495  97.8847 186.4054 0007990 246.9386 113.1011 15.30000103317545
OOV-CUBE (TUBSAT-30)    
1 60240U 24128F   26182.56074397  .00001946  00000+0  15749-3 0  9997
2 60240  61.9925 175.4501 0042863 136.9711 223.4745 15.02825965108278
LPNTSAT-001 (IOD-1)     
1 68408U 26065A   26182.63918262  .00002801  00000+0  13827-3 0  9995
2 68408  97.3999  62.8427 0015215 318.8569  41.1518 15.18610529 14459
